satname,norad_id,inclination_deg,eccentricity,mean_motion_rev_per_day,perigee_km,apogee_km,l1,l2
STARLINK-1364,45589,53.0564,0.0001465,15.06390481,546.2261646181141,548.2553002937238,1 45589U 20025BL  25341.13535116 -.00000734  00000+0 -30381-4 0  9994,2 45589  53.0564 132.1155 0001465  90.9451 269.1706 15.06390481311551
STARLINK-1365,45590,53.0547,0.0001544,15.06393333,546.1627144361419,548.3012683806892,1 45590U 20025BM  25341.21736820 -.00001778  00000+0 -10051-3 0  9990,2 45590  53.0547 161.7395 0001544  87.6054 272.5112 15.06393333311163
STARLINK-1443,45660,53.0556,0.0001405,15.06388141,546.2748877246586,548.220920882768,1 45660U 20035D   25341.13627935  .00005640  00000+0  39736-3 0  9997,2 45660  53.0556 122.1084 0001405  90.5359 269.5791 15.06388141304784
STARLINK-1446,45663,53.0257,0.0001032,15.36900498,454.57610265309177,455.9865201925695,1 45663U 20035G   25341.29877711  .00023730  00000+0  65673-3 0  9995,2 45663  53.0257  76.6803 0001032 346.1557  13.9417 15.36900498305430
STARLINK-1448,45665,53.0561,0.0001431,15.06394486,546.2374378086824,548.2194774026493,1 45665U 20035J   25340.67552571  .00000905  00000+0  79661-4 0  9994,2 45665  53.0561 124.1723 0001431  86.9525 273.1628 15.06394486304701
STARLINK-1451,45668,53.0541,0.0001398,15.06397326,546.2515885011526,548.1879182493958,1 45668U 20035M   25340.67925316  .00001465  00000+0  11723-3 0  9994,2 45668  53.0541 124.4763 0001398  80.5654 279.5493 15.06397326304711
STARLINK-1452,45669,53.0391,0.0007964,15.30724076,468.1939556770694,479.10748315655746,1 45669U 20035N   25341.30674133  .00023209  00000+0  77993-3 0  9995,2 45669  53.0391  96.8489 0007964 136.8735 223.2890 15.30724076305151
STARLINK-1453,45670,53.0581,0.0001471,15.12636452,527.1475144687138,529.1793480555898,1 45670U 20035P   25341.01486522  .00016761  00000+0  96276-3 0  9998,2 45670  53.0581  91.8942 0001471  89.9558 270.1602 15.12636452305085
STARLINK-1454,45671,53.0546,0.000122,15.06402957,546.3576037555777,548.0473865923996,1 45671U 20035Q   25341.09939171  .00004283  00000+0  30621-3 0  9998,2 45671  53.0546 122.2753 0001220  71.4548 288.6574 15.06402957304763
STARLINK-1456,45673,53.0563,0.0001422,15.06386084,546.2694181724519,548.2389994322357,1 45673U 20035S   25341.11415435 -.00000364  00000+0 -55321-5 0  9999,2 45673  53.0563 122.2075 0001422 105.6451 254.4695 15.06386084304787
STARLINK-1457,45674,53.0527,0.0003034,15.46300954,425.49330870089125,429.62300452192267,1 45674U 20035T   25341.28264214  .00050589  00000+0  10119-2 0  9990,2 45674  53.0527 114.0034 0003034 306.9965  53.0764 15.46300954304886
STARLINK-1458,45675,53.0545,0.000123,15.06399381,546.3616369787987,548.0652731907503,1 45675U 20035U   25341.11046879  .00003010  00000+0  22085-3 0  9991,2 45675  53.0545 122.2212 0001230  97.2882 262.8247 15.06399381304749
STARLINK-1460,45676,53.0545,0.0001416,15.06391816,546.2560079255827,548.2172737406672,1 45676U 20035V   25340.68289142 -.00000560  00000+0 -18713-4 0  9998,2 45676  53.0545 124.1413 0001416  88.9367 271.1785 15.06391816304672
STARLINK-1392,45677,53.0563,0.0001647,15.06406946,546.0496681291934,548.3308709317771,1 45677U 20035W   25340.69393597  .00000999  00000+0  85965-4 0  9997,2 45677  53.0563 124.0955 0001647 103.4309 256.6864 15.06406946304710
STARLINK-1394,45679,53.0535,0.0001225,15.06396504,546.3739161845779,548.0706292063887,1 45679U 20035Y   25340.75754082 -.00001209  00000+0 -62289-4 0  9997,2 45679  53.0535 113.8062 0001225  77.4390 282.6736 15.06396504304869
STARLINK-1402,45685,53.0527,0.0003199,15.30702384,471.52354403011304,475.9073592286659,1 45685U 20035AE  25341.27938317  .00014582  00000+0  49571-3 0  9991,2 45685  53.0527  98.4632 0003199 252.5052 107.5598 15.30702384305137
STARLINK-1404,45686,53.0538,0.000135,15.06395428,546.2906465482129,548.1604944422461,1 45686U 20035AF  25340.78333715  .00000706  00000+0  66304-4 0  9995,2 45686  53.0538 113.6934 0001350  91.9380 268.1764 15.06395428304870
STARLINK-1413,45689,53.0554,0.0001276,15.06403341,546.3176451039835,548.0849914428063,1 45689U 20035AJ  25341.06715244 -.00001070  00000+0 -52976-4 0  9998,2 45689  53.0554 112.4166 0001276  91.8622 268.2513 15.06403341304822
STARLINK-1417,45693,53.0529,1.71e-05,15.07206423,544.6227084404482,544.8594708711144,1 45693U 20035AN  25340.59392825  .00007458  00000+0  50794-3 0  9995,2 45693  53.0529 114.4890 0000171  37.0991 323.0011 15.07206423304836
STARLINK-1420,45695,53.0543,0.0001421,15.06395322,546.2418013041924,548.2099894390567,1 45695U 20035AQ  25341.32975611  .00003415  00000+0  24805-3 0  9992,2 45695  53.0543  91.2277 0001421  84.0588 276.0563 15.06395322305238
STARLINK-1422,45696,53.0561,0.0001368,15.06386007,546.3070512502491,548.201838349546,1 45696U 20035AR  25341.07453515 -.00001553  00000+0 -85447-4 0  9992,2 45696  53.0561 112.3879 0001368 102.7859 257.3283 15.06386007304905
STARLINK-1351,45697,53.0557,0.0001311,15.06402915,546.294711872828,548.1105359222138,1 45697U 20035AS  25341.31594876  .00002509  00000+0  18726-3 0  9991,2 45697  53.0557  91.3016 0001311  96.1313 263.9826 15.06402915305239
STARLINK-1398,45699,53.0489,0.0001423,15.5725556,394.64000673455666,396.5678133975616,1 45699U 20035AU  25341.15650713  .00065201  00000+0  87815-3 0  9991,2 45699  53.0489  39.0951 0001423 292.5844  67.5016 15.57255560305953
STARLINK-1400,45700,53.0556,0.000141,15.06392643,546.2576288494729,548.2105835014136,1 45700U 20035AV  25341.29015936  .00001613  00000+0  12716-3 0  9996,2 45700  53.0556  91.4159 0001410  92.0375 268.0776 15.06392643305220
STARLINK-1403,45701,53.0563,0.0001449,15.06393864,546.2268782273295,548.2338496894045,1 45701U 20035AW  25341.05425937  .00000559  00000+0  56396-4 0  9998,2 45701  53.0563  92.4766 0001449  89.5327 270.5828 15.06393864305181
STARLINK-1407,45703,53.0404,0.0008934,15.44929982,425.5000093726012,437.6676185229644,1 45703U 20035AY  25341.13764240  .00032928  00000+0  69409-3 0  9995,2 45703  53.0404  41.0676 0008934 170.9247 189.1922 15.44929982305929
STARLINK-1411,45706,53.0521,0.0002784,15.45741189,427.30594231419127,431.0962681711899,1 45706U 20035BB  25340.95646226  .00092557  00000+0  18699-2 0  9998,2 45706  53.0521  69.1556 0002784   2.3081 357.7938 15.45741189305507
STARLINK-1423,45710,53.0546,0.0001168,15.06407767,546.3788753730241,547.9966312353972,1 45710U 20035BF  25341.01370953  .00000558  00000+0  56330-4 0  9998,2 45710  53.0546  92.6567 0001168  72.4634 287.6483 15.06407767305187
STARLINK-1433,45711,53.0547,0.0001581,15.06413831,546.0742773344409,548.2640591448389,1 45711U 20035BG  25341.32701242  .00011465  00000+0  78701-3 0  9996,2 45711  53.0547  91.2504 0001581  71.2888 288.8273 15.06413831305226
STARLINK-1434,45712,53.0504,0.0003576,15.17961096,509.5396282950078,514.4674568110413,1 45712U 20035BH  25340.71148023  .00014332  00000+0  71099-3 0  9990,2 45712  53.0504  87.5632 0003576 177.6942 182.4069 15.17961096305234
STARLINK-1465,45731,53.0546,0.000164,15.06395946,546.0882236910647,548.3597420934539,1 45731U 20038B   25341.29384875  .00000426  00000+0  47532-4 0  9990,2 45731  53.0546 291.3965 0001640  99.9810 260.1364 15.06395946302260
STARLINK-1471,45735,53.0485,0.000163,15.42866539,436.54307363068165,438.7650215121894,1 45735U 20038F   25341.11181672  .00029536  00000+0  66953-3 0  9995,2 45735  53.0485 223.3178 0001630 106.8392 253.2792 15.42866539303214
STARLINK-1474,45738,53.0327,0.0002598,15.74495966,344.31890341620783,347.8127992177524,1 45738U 20038J   25341.24527083  .00125725  00000+0  83860-3 0  9995,2 45738  53.0327 172.3160 0002598 122.8513 237.2756 15.74495966303931
STARLINK-1475,45739,53.0372,0.0004503,16.09205493,246.03951937776765,252.0079403310756,1 45739U 20038K   25341.54537734  .00764173  32490-3  83499-3 0  9999,2 45739  53.0372 131.9867 0004503 316.7804  43.2875 16.09205493304539
STARLINK-1480,45741,53.055,8.09e-05,15.06415189,546.6047492997395,547.7252631643478,1 45741U 20038M   25341.27540911  .00008824  00000+0  61029-3 0  9990,2 45741  53.0550 291.4786 0000809  88.4893 271.6189 15.06415189302273
STARLINK-1500,45744,53.0404,0.0002089,15.29618366,475.52024582964077,478.3843021283092,1 45744U 20038Q   25341.17922241  .00033047  00000+0  11431-2 0  9998,2 45744  53.0404 264.9464 0002089  35.4167 324.6970 15.29618366302634
STARLINK-1504,45746,53.026,0.0003368,15.43851892,432.45906914385796,437.048232286179,1 45746U 20038S   25341.12362440  .00046897  00000+0  10207-2 0  9991,2 45746  53.0260 226.2270 0003368  75.1792 284.9586 15.43851892303167
STARLINK-1506,45747,53.0671,0.0002686,15.22850005,495.4023208809749,499.0957782668065,1 45747U 20038T   25341.22681803  .00013326  00000+0  57495-3 0  9992,2 45747  53.0671 269.0111 0002686  23.2744 336.8374 15.22850005302585
STARLINK-1464,45751,53.0542,0.0001009,15.06394693,546.529053866022,547.9265924873398,1 45751U 20038X   25341.21090160  .00033739  00000+0  22735-2 0  9994,2 45751  53.0542 271.7727 0001009 107.5277 252.5822 15.06394693302541
STARLINK-1477,45754,53.0537,0.000611,15.087357,535.8351909862931,544.289230421773,1 45754U 20038AA  25341.19256714  .00009075  00000+0  58907-3 0  9990,2 45754  53.0537 271.5028 0006110  81.7156 278.4526 15.08735700302545
STARLINK-1478,45755,53.0537,0.000139,15.0639103,546.2764225618539,548.2016771037061,1 45755U 20038AB  25341.11140161  .00003036  00000+0  22268-3 0  9993,2 45755  53.0537 272.2167 0001390  77.2655 282.8489 15.06391030302513
STARLINK-1484,45756,53.0124,0.0002164,15.68548637,361.5933838132096,364.51097048908014,1 45756U 20038AC  25340.92645920  .00098452  00000+0  84726-3 0  9998,2 45756  53.0124 163.3959 0002164 148.3298 211.7848 15.68548637304021
STARLINK-1493,45759,53.0551,0.0001459,15.06376866,546.2720425243715,548.2928799231568,1 45759U 20038AF  25341.23302409  .00018620  00000+0  12664-2 0  9998,2 45759  53.0551 271.6703 0001459  82.3760 277.7395 15.06376866302533
